      2.10          N: GNSS NAV DATA                        RINEX VERSION / TYPE
fic2rin                                 10/20/2022 00:17:57 PGM / RUN BY / DATE
                                                            END OF HEADER
9  22 10 19  1 59 28.0 -.281266868114D-03  .522959453519D-11  .000000000000D+00
     .320000000000D+02 -.548437500000D+02  .446911472800D-08  .867405377636D+00
    -.290572643280D-05  .259749079123D-02  .902265310287D-05  .515374246597D+04
     .266368000000D+06  .149011611938D-07  .204993073385D+01 -.502914190292D-07
     .954845958858D+00  .201218750000D+03  .191186747586D+01 -.800854787388D-08
     .785747015231D-10  .100000000000D+01  .223200000000D+04  .000000000000D+00
     .240000000000D+01  .630000000000D+02  .139698386192D-08  .320000000000D+02
     .259200000000D+06  .400000000000D+01
25 22 10 19 19 59 44.0  .384066719562D-03  .386535248253D-11  .000000000000D+00
     .270000000000D+02  .156875000000D+02  .505163899247D-08 -.119498195591D+00
     .864267349243D-06  .106480052928D-01  .553019344807D-05  .515359865761D+04
     .331184000000D+06 -.633299350739D-07 -.212820390236D+01  .949949026108D-07
     .955103351980D+00  .268750000000D+03  .100409684711D+01 -.850606859761D-08
    -.278940190407D-09  .100000000000D+01  .223200000000D+04  .000000000000D+00
     .240000000000D+01  .000000000000D+00  .558793544769D-08  .270000000000D+02
     .324000000000D+06  .400000000000D+01
2  22 10 19 20  0  0.0 -.641663093120D-03  .159161572810D-11  .000000000000D+00
     .840000000000D+02  .409375000000D+02  .433018036939D-08  .676353371827D+00
     .203959643841D-05  .200676324312D-01  .707618892193D-05  .515489885139D+04
     .331200000000D+06 -.232830643654D-06 -.103933908784D+00 -.191852450371D-06
     .966954461580D+00  .250218750000D+03 -.138984935740D+01 -.838213486385D-08
     .124290891500D-09  .100000000000D+01  .223200000000D+04  .000000000000D+00
     .240000000000D+01  .000000000000D+00 -.172294676304D-07  .840000000000D+02
     .324000000000D+06  .400000000000D+01
1  22 10 19 20  0  0.0  .264930073172D-03 -.602540239925D-11  .000000000000D+00
     .640000000000D+02  .542500000000D+02  .384408869315D-08  .138721281622D+01
     .272132456303D-05  .120037882589D-01  .624544918537D-05  .515365907669D+04
     .331200000000D+06 -.182539224625D-06 -.967925703134D-02  .167638063431D-07
     .989081385724D+00  .275468750000D+03  .942429914183D+00 -.800819071614D-08
     .163578242262D-09  .100000000000D+01  .223200000000D+04  .000000000000D+00
     .240000000000D+01  .000000000000D+00  .512227416039D-08  .640000000000D+02
     .324000000000D+06  .400000000000D+01
5  22 10 19 20  0  0.0 -.101022887975D-03 -.147792889038D-11  .000000000000D+00
     .510000000000D+02 -.389375000000D+02  .457947646786D-08 -.238565268785D+01
    -.222213566303D-05  .597804388963D-02  .344216823578D-05  .515355160904D+04
     .331200000000D+06  .782310962677D-07  .978898918521D+00 -.428408384323D-07
     .962637560027D+00  .309687500000D+03  .113500867689D+01 -.816998316974D-08
     .143220251413D-09  .100000000000D+01  .223200000000D+04  .000000000000D+00
     .240000000000D+01  .000000000000D+00 -.111758708954D-07  .510000000000D+02
     .324000000000D+06  .400000000000D+01
6  22 10 19 20  0  0.0  .495823100209D-03  .106865627458D-10  .000000000000D+00
     .260000000000D+02  .497187500000D+02  .372336937899D-08  .164038415066D+01
     .265054404736D-05  .252865941729D-02  .654533505440D-05  .515354335403D+04
     .331200000000D+06  .316649675369D-07 -.179531179223D-01 -.372529029846D-08
     .988375302461D+00  .264968750000D+03 -.913119880868D+00 -.779032449828D-08
     .245010205659D-09  .100000000000D+01  .223200000000D+04  .000000000000D+00
     .240000000000D+01  .000000000000D+00  .372529029846D-08  .260000000000D+02
     .324000000000D+06  .400000000000D+01
3  22 10 19 20  0  0.0 -.366116408259D-03 -.375166564481D-11  .000000000000D+00
     .850000000000D+02 -.525000000000D+02  .436053877680D-08  .293961835365D+00
    -.291131436825D-05  .446692272089D-02  .424496829510D-05  .515378933334D+04
     .331200000000D+06 -.726431608200D-07  .102256140704D+01  .102445483208D-06
     .975588453404D+00  .308468750000D+03  .104972243711D+01 -.818962684512D-08
     .235724104569D-10  .100000000000D+01  .223200000000D+04  .000000000000D+00
     .240000000000D+01  .000000000000D+00  .186264514923D-08  .850000000000D+02
     .324000000000D+06  .400000000000D+01
4  22 10 19 20  0  0.0 -.100895296782D-03  .625277607469D-11  .000000000000D+00
     .174000000000D+03 -.693437500000D+02  .446911472800D-08 -.298236749267D+01
    -.341795384884D-05  .208445941098D-02  .102445483208D-04  .515374664688D+04
     .331200000000D+06 -.223517417908D-07  .210435387284D+01 -.186264514923D-08
     .961742495544D+00  .184812500000D+03 -.311693691024D+01 -.786889919981D-08
     .116433421348D-09  .100000000000D+01  .223200000000D+04  .000000000000D+00
     .240000000000D+01  .000000000000D+00 -.465661287308D-08  .942000000000D+03
     .324000000000D+06  .400000000000D+01
17 22 10 19 20  0  0.0  .670276116580D-03  .352429196937D-11  .000000000000D+00
     .600000000000D+01  .249375000000D+02  .385444626744D-08 -.263595718124D+01
     .136904418468D-05  .138130189152D-01  .932440161705D-05  .515364463234D+04
     .331200000000D+06  .137835741043D-06 -.100940689010D+01  .298023223877D-07
     .976984744342D+00  .208156250000D+03 -.147161981298D+01 -.748102590047D-08
    -.272868508926D-09  .100000000000D+01  .223200000000D+04  .000000000000D+00
     .240000000000D+01  .000000000000D+00 -.111758708954D-07  .600000000000D+01
     .324000000000D+06  .400000000000D+01
12 22 10 19 20  0  0.0 -.294188037515D-03 -.443378667114D-11  .000000000000D+00
     .760000000000D+02  .115625000000D+02  .470269588616D-08  .380123053765D-01
     .573694705963D-06  .854563189205D-02  .587292015553D-05  .515372024345D+04
     .331200000000D+06 -.106170773506D-06 -.204845534879D+01  .502914190292D-07
     .967490764422D+00  .270093750000D+03  .131819913357D+01 -.828570227561D-08
    -.295012288446D-09  .100000000000D+01  .223200000000D+04  .000000000000D+00
     .240000000000D+01  .000000000000D+00 -.125728547573D-07  .760000000000D+02
     .324000000000D+06  .400000000000D+01
29 22 10 19 20  0  0.0 -.560897868127D-03 -.295585778076D-11  .000000000000D+00
     .520000000000D+02  .163125000000D+02  .390873424304D-08 -.275575957016D+01
     .786036252975D-06  .216820731293D-02  .873580574989D-05  .515363681412D+04
     .331200000000D+06  .204890966415D-07 -.995833111075D+00  .409781932831D-07
     .979134759933D+00  .222718750000D+03  .247794226904D+01 -.771817863598D-08
    -.312870175156D-09  .100000000000D+01  .223200000000D+04  .000000000000D+00
     .240000000000D+01  .000000000000D+00 -.102445483208D-07  .520000000000D+02
     .324000000000D+06  .400000000000D+01
16 22 10 19 20  0  0.0 -.526414252818D-03 -.454747350886D-12  .000000000000D+00
     .580000000000D+02  .140312500000D+02  .455268963780D-08 -.174312927174D+01
     .702217221260D-06  .128730172291D-01  .582635402679D-05  .515372183418D+04
     .331200000000D+06  .176951289177D-06 -.203000732714D+01 -.968575477600D-07
     .967297412003D+00  .268937500000D+03  .735332906687D+00 -.790854370830D-08
    -.193579491934D-09  .100000000000D+01  .223200000000D+04  .000000000000D+00
     .240000000000D+01  .000000000000D+00 -.102445483208D-07  .580000000000D+02
     .324000000000D+06  .400000000000D+01
13 22 10 19 20  0  0.0  .409083440900D-03  .704858393874D-11  .000000000000D+00
     .330000000000D+02 -.609375000000D+02  .424017662038D-08 -.313422165015D+01
    -.325217843056D-05  .659702543635D-02  .996328890324D-05  .515367785454D+04
     .331200000000D+06  .260770320892D-07  .220621810950D+01 -.115483999252D-06
     .969051000201D+00  .193156250000D+03  .946075334875D+00 -.768317717803D-08
     .792890169915D-10  .100000000000D+01  .223200000000D+04  .000000000000D+00
     .240000000000D+01  .000000000000D+00 -.111758708954D-07  .330000000000D+02
     .324000000000D+06  .400000000000D+01
10 22 10 19 20  0  0.0 -.820914283395D-05 -.159161572810D-11  .000000000000D+00
     .780000000000D+02 -.474375000000D+02  .438839708007D-08 -.611258641902D+00
    -.235065817833D-05  .803887750953D-02  .437907874584D-05  .515368108177D+04
     .331200000000D+06  .633299350739D-07  .101986424254D+01  .130385160446D-06
     .975368408581D+00  .300875000000D+03 -.250751791415D+01 -.820605610089D-08
     .482162941165D-10  .100000000000D+01  .223200000000D+04  .000000000000D+00
     .240000000000D+01  .000000000000D+00  .232830643654D-08  .780000000000D+02
     .324000000000D+06  .400000000000D+01
9  22 10 19 20  0  0.0 -.280925538391D-03  .522959453519D-11  .000000000000D+00
     .970000000000D+02 -.761250000000D+02  .461840666089D-08 -.224314312295D+01
    -.376440584660D-05  .259770476259D-02  .932067632675D-05  .515374397850D+04
     .331200000000D+06  .111758708954D-07  .204941387319D+01  .465661287308D-07
     .954845702848D+00  .197343750000D+03  .191196038578D+01 -.798318967475D-08
     .903609067516D-10  .100000000000D+01  .223200000000D+04  .000000000000D+00
     .240000000000D+01  .000000000000D+00  .139698386192D-08  .970000000000D+02
     .324000000000D+06  .400000000000D+01
31 22 10 19 20  0  0.0 -.197348650545D-03 -.125055521494D-11  .000000000000D+00
     .480000000000D+02  .305312500000D+02  .489020369661D-08  .223562962398D+00
     .172294676304D-05  .106342475628D-01  .796467065811D-05  .515359677124D+04
     .331200000000D+06  .763684511185D-07  .313995974589D+01  .130385160446D-06
     .955164907184D+00  .221531250000D+03  .445856144087D+00 -.823998608564D-08
     .200008331150D-09  .100000000000D+01  .223200000000D+04  .000000000000D+00
     .240000000000D+01  .000000000000D+00 -.135041773319D-07  .480000000000D+02
     .324000000000D+06  .400000000000D+01
